start=new Date('2023-04-26T00:00:00.000Z').valueOf();
sats=[{"RA_OF_ASC_NODE":"336.0645","MEAN_ANOMALY":"289.5952","SEMIMAJOR_AXIS":"6917.756","PERIOD":"95.435","APOAPSIS":"540.794","EPOCH":"2023-04-25T01:30:42.068160","TIME_SYSTEM":"UTC","MEAN_MOTION_DOT":"0.00010260","ELEMENT_SET_NO":"999","OBJECT_NAME":"STARLINK-4649","TLE_LINE1":"1 53831U 22114P   23115.06298690  .00010260  00000-0  66108-3 0  9995","MEAN_MOTION":"15.08880802","FILE":"3894092","INCLINATION":"53.2154","OBJECT_ID":"2022-114P","RCS_SIZE":"LARGE","OBJECT_TYPE":"PAYLOAD","GP_ID":"230744261","MEAN_MOTION_DDOT":"0.0000000000000","PERIAPSIS":"538.447","LAUNCH_DATE":"2022-09-19","ARG_OF_PERICENTER":"70.5223","COUNTRY_CODE":"US","DECAY_DATE":null,"REF_FRAME":"TEME","TLE_LINE2":"2 53831  53.2154 336.0645 0001696  70.5223 289.5952 15.08880802 34377","CENTER_NAME":"EARTH","MEAN_ELEMENT_THEORY":"SGP4","CLASSIFICATION_TYPE":"U","EPHEMERIS_TYPE":"0","SITE":"AFETR","BSTAR":"0.00066108000000","ECCENTRICITY":"0.00016960","REV_AT_EPOCH":"3437","NORAD_CAT_ID":"53831"},{"TLE_LINE1":"1 53832U 22114Q   23114.90839765  .00009808  00000-0  63290-3 0  9997","ELEMENT_SET_NO":"999","OBJECT_NAME":"STARLINK-4747","MEAN_MOTION":"15.08873120","FILE":"3894092","RA_OF_ASC_NODE":"336.5219","APOAPSIS":"540.380","PERIOD":"95.435","MEAN_ANOMALY":"258.5369","SEMIMAJOR_AXIS":"6917.779","EPOCH":"2023-04-24T21:48:05.556960","MEAN_MOTION_DOT":"0.00009808","TIME_SYSTEM":"UTC","REF_FRAME":"TEME","DECAY_DATE":null,"COUNTRY_CODE":"US","SITE":"AFETR","MEAN_ELEMENT_THEORY":"SGP4","CLASSIFICATION_TYPE":"U","EPHEMERIS_TYPE":"0","TLE_LINE2":"2 53832  53.2161 336.5219 0001064 101.5743 258.5369 15.08873120 34350","CENTER_NAME":"EARTH","BSTAR":"0.00063290000000","ECCENTRICITY":"0.00010640","NORAD_CAT_ID":"53832","REV_AT_EPOCH":"3435","OBJECT_TYPE":"PAYLOAD","RCS_SIZE":"LARGE","OBJECT_ID":"2022-114Q","INCLINATION":"53.2161","MEAN_MOTION_DDOT":"0.0000000000000","GP_ID":"230745012","ARG_OF_PERICENTER":"101.5743","LAUNCH_DATE":"2022-09-19","PERIAPSIS":"538.908"},{"TIME_SYSTEM":"UTC","MEAN_MOTION_DOT":"0.00016600","EPOCH":"2023-04-25T01:14:46.735584","MEAN_ANOMALY":"282.0009","SEMIMAJOR_AXIS":"6917.721","PERIOD":"95.434","APOAPSIS":"540.549","RA_OF_ASC_NODE":"335.9961","FILE":"3894092","MEAN_MOTION":"15.08892186","OBJECT_NAME":"STARLINK-4771","ELEMENT_SET_NO":"999","TLE_LINE1":"1 53833U 22114R   23115.05192981  .00016600  00000-0  10571-2 0  9998","PERIAPSIS":"538.623","LAUNCH_DATE":"2022-09-19","ARG_OF_PERICENTER":"78.1139","GP_ID":"230745263","MEAN_MOTION_DDOT":"0.0000000000000","INCLINATION":"53.2174","OBJECT_ID":"2022-114R","RCS_SIZE":"LARGE","OBJECT_TYPE":"PAYLOAD","REV_AT_EPOCH":"3437","NORAD_CAT_ID":"53833","ECCENTRICITY":"0.00013920","BSTAR":"0.00105710000000","TLE_LINE2":"2 53833  53.2174 335.9961 0001392  78.1139 282.0009 15.08892186 34372","CENTER_NAME":"EARTH","MEAN_ELEMENT_THEORY":"SGP4","EPHEMERIS_TYPE":"0","CLASSIFICATION_TYPE":"U","SITE":"AFETR","COUNTRY_CODE":"US","DECAY_DATE":null,"REF_FRAME":"TEME"},{"FILE":"3894092","TLE_LINE1":"1 53834U 22114S   23115.56344958 -.00010399  00000-0 -63682-3 0  9991","ELEMENT_SET_NO":"999","OBJECT_NAME":"STARLINK-4737","MEAN_MOTION":"15.08797405","EPOCH":"2023-04-25T13:31:22.043712","MEAN_MOTION_DOT":"-0.00010399","TIME_SYSTEM":"UTC","RA_OF_ASC_NODE":"333.5082","APOAPSIS":"542.093","PERIOD":"95.440","SEMIMAJOR_AXIS":"6918.011","MEAN_ANOMALY":"266.5331","ECCENTRICITY":"0.00032050","BSTAR":"-0.00063682000000","NORAD_CAT_ID":"53834","REV_AT_EPOCH":"3445","DECAY_DATE":null,"REF_FRAME":"TEME","COUNTRY_CODE":"US","SITE":"AFETR","CLASSIFICATION_TYPE":"U","EPHEMERIS_TYPE":"0","MEAN_ELEMENT_THEORY":"SGP4","TLE_LINE2":"2 53834  53.2215 333.5082 0003205  93.6027 266.5331 15.08797405 34452","CENTER_NAME":"EARTH","ARG_OF_PERICENTER":"93.6027","LAUNCH_DATE":"2022-09-19","PERIAPSIS":"537.658","OBJECT_TYPE":"PAYLOAD","RCS_SIZE":"LARGE","OBJECT_ID":"2022-114S","INCLINATION":"53.2215","MEAN_MOTION_DDOT":"0.0000000000000","GP_ID":"230746014"},{"PERIAPSIS":"538.657","LAUNCH_DATE":"2022-09-19","ARG_OF_PERICENTER":"91.3145","GP_ID":"230744762","MEAN_MOTION_DDOT":"0.0000000000000","INCLINATION":"53.2178","RCS_SIZE":"LARGE","OBJECT_ID":"2022-114T","OBJECT_TYPE":"PAYLOAD","REV_AT_EPOCH":"3438","NORAD_CAT_ID":"53835","ECCENTRICITY":"0.00013430","BSTAR":"0.00111240000000","CENTER_NAME":"EARTH","TLE_LINE2":"2 53835  53.2178 335.6499 0001343  91.3145 268.8001 15.08892049 34384","MEAN_ELEMENT_THEORY":"SGP4","EPHEMERIS_TYPE":"0","CLASSIFICATION_TYPE":"U","SITE":"AFETR","COUNTRY_CODE":"US","REF_FRAME":"TEME","DECAY_DATE":null,"TIME_SYSTEM":"UTC","MEAN_MOTION_DOT":"0.00017485","EPOCH":"2023-04-25T02:39:32.823648","MEAN_ANOMALY":"268.8001","SEMIMAJOR_AXIS":"6917.721","PERIOD":"95.434","APOAPSIS":"540.515","RA_OF_ASC_NODE":"335.6499","FILE":"3894092","MEAN_MOTION":"15.08892049","ELEMENT_SET_NO":"999","OBJECT_NAME":"STARLINK-4783","TLE_LINE1":"1 53835U 22114T   23115.11079657  .00017485  00000-0  11124-2 0  9998"},{"ECCENTRICITY":"0.00015990","BSTAR":"0.00067856000000","REV_AT_EPOCH":"3451","NORAD_CAT_ID":"53836","REF_FRAME":"TEME","DECAY_DATE":null,"COUNTRY_CODE":"US","CLASSIFICATION_TYPE":"U","MEAN_ELEMENT_THEORY":"SGP4","EPHEMERIS_TYPE":"0","TLE_LINE2":"2 53836  53.2145 326.1933 0001599 109.3719 250.7446 15.08877768 34516","CENTER_NAME":"EARTH","SITE":"AFETR","PERIAPSIS":"538.524","ARG_OF_PERICENTER":"109.3719","LAUNCH_DATE":"2022-09-19","INCLINATION":"53.2145","OBJECT_TYPE":"PAYLOAD","OBJECT_ID":"2022-114U","RCS_SIZE":"LARGE","GP_ID":"230744512","MEAN_MOTION_DDOT":"0.0000000000000","FILE":"3894092","TLE_LINE1":"1 53836U 22114U   23115.08232966  .00010539  00000-0  67856-3 0  9996","ELEMENT_SET_NO":"999","OBJECT_NAME":"STARLINK-4778","MEAN_MOTION":"15.08877768","EPOCH":"2023-04-25T01:58:33.282624","MEAN_MOTION_DOT":"0.00010539","TIME_SYSTEM":"UTC","RA_OF_ASC_NODE":"326.1933","PERIOD":"95.435","SEMIMAJOR_AXIS":"6917.765","MEAN_ANOMALY":"250.7446","APOAPSIS":"540.736"},{"REV_AT_EPOCH":"3445","NORAD_CAT_ID":"53837","ECCENTRICITY":"0.00014600","BSTAR":"-0.00064394000000","CENTER_NAME":"EARTH","TLE_LINE2":"2 53837  53.2172 333.5237 0001460 112.6797 247.4349 15.08816309 34458","MEAN_ELEMENT_THEORY":"SGP4","EPHEMERIS_TYPE":"0","CLASSIFICATION_TYPE":"U","SITE":"AFETR","COUNTRY_CODE":"US","DECAY_DATE":null,"REF_FRAME":"TEME","PERIAPSIS":"538.808","LAUNCH_DATE":"2022-09-19","ARG_OF_PERICENTER":"112.6797","GP_ID":"230745764","MEAN_MOTION_DDOT":"0.0000000000000","INCLINATION":"53.2172","OBJECT_ID":"2022-114V","RCS_SIZE":"LARGE","OBJECT_TYPE":"PAYLOAD","FILE":"3894092","MEAN_MOTION":"15.08816309","OBJECT_NAME":"STARLINK-4776","ELEMENT_SET_NO":"999","TLE_LINE1":"1 53837U 22114V   23115.56713282 -.00010515  00000-0 -64394-3 0  9995","TIME_SYSTEM":"UTC","MEAN_MOTION_DOT":"-0.00010515","EPOCH":"2023-04-25T13:36:40.275648","SEMIMAJOR_AXIS":"6917.953","MEAN_ANOMALY":"247.4349","PERIOD":"95.439","APOAPSIS":"540.828","RA_OF_ASC_NODE":"333.5237"},{"FILE":"3894092","MEAN_MOTION":"15.08789520","OBJECT_NAME":"STARLINK-4773","ELEMENT_SET_NO":"999","TLE_LINE1":"1 53838U 22114W   23115.60859221 -.00005935  00000-0 -35555-3 0  9992","TIME_SYSTEM":"UTC","MEAN_MOTION_DOT":"-0.00005935","EPOCH":"2023-04-25T14:36:22.366944","SEMIMAJOR_AXIS":"6918.035","MEAN_ANOMALY":"268.4679","PERIOD":"95.441","APOAPSIS":"541.633","RA_OF_ASC_NODE":"323.7957","REV_AT_EPOCH":"3459","NORAD_CAT_ID":"53838","ECCENTRICITY":"0.00025050","BSTAR":"-0.00035555000000","TLE_LINE2":"2 53838  53.2163 323.7957 0002505  91.6600 268.4679 15.08789520 34597","CENTER_NAME":"EARTH","MEAN_ELEMENT_THEORY":"SGP4","EPHEMERIS_TYPE":"0","CLASSIFICATION_TYPE":"U","SITE":"AFETR","COUNTRY_CODE":"US","DECAY_DATE":null,"REF_FRAME":"TEME","PERIAPSIS":"538.167","LAUNCH_DATE":"2022-09-19","ARG_OF_PERICENTER":"91.6600","GP_ID":"230745514","MEAN_MOTION_DDOT":"0.0000000000000","INCLINATION":"53.2163","RCS_SIZE":"LARGE","OBJECT_ID":"2022-114W","OBJECT_TYPE":"PAYLOAD"},{"APOAPSIS":"540.528","MEAN_ANOMALY":"281.5444","SEMIMAJOR_AXIS":"6917.950","PERIOD":"95.439","RA_OF_ASC_NODE":"322.9522","TIME_SYSTEM":"UTC","MEAN_MOTION_DOT":"-0.00002201","EPOCH":"2023-04-25T19:33:10.068768","MEAN_MOTION":"15.08817298","ELEMENT_SET_NO":"999","OBJECT_NAME":"STARLINK-4784","TLE_LINE1":"1 53839U 22114X   23115.81469987 -.00002201  00000-0 -12031-3 0  9999","FILE":"3894153","MEAN_MOTION_DDOT":"0.0000000000000","GP_ID":"230747792","RCS_SIZE":"LARGE","OBJECT_ID":"2022-114X","OBJECT_TYPE":"PAYLOAD","INCLINATION":"53.2175","LAUNCH_DATE":"2022-09-19","ARG_OF_PERICENTER":"78.5664","PERIAPSIS":"539.102","SITE":"AFETR","CENTER_NAME":"EARTH","TLE_LINE2":"2 53839  53.2175 322.9522 0001031  78.5664 281.5444 15.08817298 34081","MEAN_ELEMENT_THEORY":"SGP4","EPHEMERIS_TYPE":"0","CLASSIFICATION_TYPE":"U","COUNTRY_CODE":"US","DECAY_DATE":null,"REF_FRAME":"TEME","NORAD_CAT_ID":"53839","REV_AT_EPOCH":"3408","BSTAR":"-0.00012031000000","ECCENTRICITY":"0.00010310"},{"SITE":"AFETR","CENTER_NAME":"EARTH","TLE_LINE2":"2 53840  53.2174 322.5456 0001206  61.1558 298.9555 15.08767968 34092","CLASSIFICATION_TYPE":"U","MEAN_ELEMENT_THEORY":"SGP4","EPHEMERIS_TYPE":"0","COUNTRY_CODE":"US","DECAY_DATE":null,"REF_FRAME":"TEME","NORAD_CAT_ID":"53840","REV_AT_EPOCH":"3409","ECCENTRICITY":"0.00012060","BSTAR":"-0.00102370000000","MEAN_MOTION_DDOT":"0.0000000000000","GP_ID":"230747797","RCS_SIZE":"LARGE","OBJECT_ID":"2022-114Y","OBJECT_TYPE":"PAYLOAD","INCLINATION":"53.2174","LAUNCH_DATE":"2022-09-19","ARG_OF_PERICENTER":"61.1558","PERIAPSIS":"539.131","MEAN_MOTION":"15.08767968","ELEMENT_SET_NO":"999","OBJECT_NAME":"STARLINK-4766","TLE_LINE1":"1 53840U 22114Y   23115.86346845 -.00016511  00000-0 -10237-2 0  9997","FILE":"3894153","APOAPSIS":"540.800","MEAN_ANOMALY":"298.9555","SEMIMAJOR_AXIS":"6918.101","PERIOD":"95.442","RA_OF_ASC_NODE":"322.5456","TIME_SYSTEM":"UTC","MEAN_MOTION_DOT":"-0.00016511","EPOCH":"2023-04-25T20:43:23.674080"}];
